{
  "type": "FeatureCollection",
  "features": [
    {
      "type": "Feature",
      "properties": {
        "norad_id": 38250,
        "name": "BEIDOU-2 M3 (C11)",
        "group": "beidou",
        "lat": 14.35394964077254,
        "lon": -39.29292903154396,
        "alt_km": 21540.289511661475,
        "timestamp": "2025-12-24T16:52:41.796877+00:00",
        "meta_object_name": "BEIDOU-2 M3 (C11)",
        "meta_object_id": "2012-018A",
        "meta_epoch": "2025-12-23T14:28:50.284992",
        "meta_mean_motion": 1.86230163,
        "meta_eccentricity": 0.00241022,
        "meta_inclination": 55.911,
        "meta_ra_of_asc_node": 310.7927,
        "meta_arg_of_pericenter": 275.3746,
        "meta_mean_anomaly": 84.3517,
        "meta_ephemeris_type": 0,
        "meta_classification_type": "U",
        "meta_norad_cat_id": 38250,
        "meta_element_set_no": 999,
        "meta_rev_at_epoch": 9267,
        "meta_bstar": 0,
        "meta_mean_motion_dot": -5.4e-07,
        "meta_mean_motion_ddot": 0,
        "tle_line1": "1 38250U 12018A   25357.60335978 -.00000054  00000+0  00000+0 0  9991",
        "tle_line2": "2 38250  55.9110 310.7927 0024102 275.3746  84.3517  1.86230163 92675"
      },
      "geometry": {
        "type": "Point",
        "coordinates": [
          -39.29292903154396,
          14.35394964077254
        ]
      }
    },
    {
      "type": "Feature",
      "properties": {
        "norad_id": 38251,
        "name": "BEIDOU-2 M4 (C12)",
        "group": "beidou",
        "lat": 47.436722215535056,
        "lon": -2.353217305942123,
        "alt_km": 21556.69941875672,
        "timestamp": "2025-12-24T16:52:41.796889+00:00",
        "meta_object_name": "BEIDOU-2 M4 (C12)",
        "meta_object_id": "2012-018B",
        "meta_epoch": "2025-12-24T01:44:14.261856",
        "meta_mean_motion": 1.86229893,
        "meta_eccentricity": 0.00152512,
        "meta_inclination": 55.8118,
        "meta_ra_of_asc_node": 310.0049,
        "meta_arg_of_pericenter": 279.3729,
        "meta_mean_anomaly": 80.4579,
        "meta_ephemeris_type": 0,
        "meta_classification_type": "U",
        "meta_norad_cat_id": 38251,
        "meta_element_set_no": 999,
        "meta_rev_at_epoch": 9268,
        "meta_bstar": 0,
        "meta_mean_motion_dot": -5.3e-07,
        "meta_mean_motion_ddot": 0,
        "tle_line1": "1 38251U 12018B   25358.07238729 -.00000053  00000+0  00000+0 0  9999",
        "tle_line2": "2 38251  55.8118 310.0049 0015251 279.3729  80.4579  1.86229893 92685"
      },
      "geometry": {
        "type": "Point",
        "coordinates": [
          -2.353217305942123,
          47.436722215535056
        ]
      }
    },
    {
      "type": "Feature",
      "properties": {
        "norad_id": 38775,
        "name": "BEIDOU-2 M6 (C14)",
        "group": "beidou",
        "lat": -54.15179305403926,
        "lon": -44.470228567165094,
        "alt_km": 21531.998152578377,
        "timestamp": "2025-12-24T16:52:41.796900+00:00",
        "meta_object_name": "BEIDOU-2 M6 (C14)",
        "meta_object_id": "2012-050B",
        "meta_epoch": "2025-12-24T07:41:05.368128",
        "meta_mean_motion": 1.86230801,
        "meta_eccentricity": 0.00114872,
        "meta_inclination": 56.388,
        "meta_ra_of_asc_node": 68.6832,
        "meta_arg_of_pericenter": 343.1884,
        "meta_mean_anomaly": 16.8281,
        "meta_ephemeris_type": 0,
        "meta_classification_type": "U",
        "meta_norad_cat_id": 38775,
        "meta_element_set_no": 999,
        "meta_rev_at_epoch": 9005,
        "meta_bstar": 0,
        "meta_mean_motion_dot": -2.4e-07,
        "meta_mean_motion_ddot": 0,
        "tle_line1": "1 38775U 12050B   25358.32020102 -.00000024  00000+0  00000+0 0  9996",
        "tle_line2": "2 38775  56.3880  68.6832 0011487 343.1884  16.8281  1.86230801 90056"
      },
      "geometry": {
        "type": "Point",
        "coordinates": [
          -44.470228567165094,
          -54.15179305403926
        ]
      }
    },
    {
      "type": "Feature",
      "properties": {
        "norad_id": 38953,
        "name": "BEIDOU-2 G6 (C02)",
        "group": "beidou",
        "lat": -0.3146459942381904,
        "lon": 70.63185107943143,
        "alt_km": 35771.75799182584,
        "timestamp": "2025-12-24T16:52:41.796912+00:00",
        "meta_object_name": "BEIDOU-2 G6 (C02)",
        "meta_object_id": "2012-059A",
        "meta_epoch": "2025-12-23T23:07:51.482784",
        "meta_mean_motion": 1.00267756,
        "meta_eccentricity": 0.0008393,
        "meta_inclination": 3.9757,
        "meta_ra_of_asc_node": 75.399,
        "meta_arg_of_pericenter": 291.3316,
        "meta_mean_anomaly": 156.8813,
        "meta_ephemeris_type": 0,
        "meta_classification_type": "U",
        "meta_norad_cat_id": 38953,
        "meta_element_set_no": 999,
        "meta_rev_at_epoch": 4815,
        "meta_bstar": 0,
        "meta_mean_motion_dot": -1.54e-06,
        "meta_mean_motion_ddot": 0,
        "tle_line1": "1 38953U 12059A   25357.96379031 -.00000154  00000+0  00000+0 0  9994",
        "tle_line2": "2 38953   3.9757  75.3990 0008393 291.3316 156.8813  1.00267756 48156"
      },
      "geometry": {
        "type": "Point",
        "coordinates": [
          70.63185107943143,
          -0.3146459942381904
        ]
      }
    },
    {
      "type": "Feature",
      "properties": {
        "norad_id": 40549,
        "name": "BEIDOU-3S IGSO-1S (C31)",
        "group": "beidou",
        "lat": 26.90011869211938,
        "lon": 91.92531361693376,
        "alt_km": 35679.77472365067,
        "timestamp": "2025-12-24T16:52:41.796924+00:00",
        "meta_object_name": "BEIDOU-3S IGSO-1S (C31)",
        "meta_object_id": "2015-019A",
        "meta_epoch": "2025-12-18T19:55:38.829792",
        "meta_mean_motion": 1.00292047,
        "meta_eccentricity": 0.0036331,
        "meta_inclination": 49.5404,
        "meta_ra_of_asc_node": 297.6395,
        "meta_arg_of_pericenter": 194.0028,
        "meta_mean_anomaly": 349.3621,
        "meta_ephemeris_type": 0,
        "meta_classification_type": "U",
        "meta_norad_cat_id": 40549,
        "meta_element_set_no": 999,
        "meta_rev_at_epoch": 3926,
        "meta_bstar": 0,
        "meta_mean_motion_dot": -1.83e-06,
        "meta_mean_motion_ddot": 0,
        "tle_line1": "1 40549U 15019A   25352.83031053 -.00000183  00000+0  00000+0 0  9999",
        "tle_line2": "2 40549  49.5404 297.6395 0036331 194.0028 349.3621  1.00292047 39264"
      },
      "geometry": {
        "type": "Point",
        "coordinates": [
          91.92531361693376,
          26.90011869211938
        ]
      }
    },
    {
      "type": "Feature",
      "properties": {
        "norad_id": 40748,
        "name": "BEIDOU-3S M2S (C58)",
        "group": "beidou",
        "lat": -52.196946354269734,
        "lon": -116.29084263514065,
        "alt_km": 21501.843069807386,
        "timestamp": "2025-12-24T16:52:41.796937+00:00",
        "meta_object_name": "BEIDOU-3S M2S (C58)",
        "meta_object_id": "2015-037A",
        "meta_epoch": "2025-12-23T17:46:18.118272",
        "meta_mean_motion": 1.86229556,
        "meta_eccentricity": 0.00118562,
        "meta_inclination": 55.029,
        "meta_ra_of_asc_node": 308.0865,
        "meta_arg_of_pericenter": 270.9171,
        "meta_mean_anomaly": 88.9514,
        "meta_ephemeris_type": 0,
        "meta_classification_type": "U",
        "meta_norad_cat_id": 40748,
        "meta_element_set_no": 999,
        "meta_rev_at_epoch": 7085,
        "meta_bstar": 0,
        "meta_mean_motion_dot": -5.3e-07,
        "meta_mean_motion_ddot": 0,
        "tle_line1": "1 40748U 15037A   25357.74048748 -.00000053  00000+0  00000+0 0  9990",
        "tle_line2": "2 40748  55.0290 308.0865 0011856 270.9171  88.9514  1.86229556 70853"
      },
      "geometry": {
        "type": "Point",
        "coordinates": [
          -116.29084263514065,
          -52.196946354269734
        ]
      }
    },
    {
      "type": "Feature",
      "properties": {
        "norad_id": 40749,
        "name": "BEIDOU-3S M1S (C57)",
        "group": "beidou",
        "lat": 37.31917574418472,
        "lon": 95.81133840572589,
        "alt_km": 21527.832467744647,
        "timestamp": "2025-12-24T16:52:41.796948+00:00",
        "meta_object_name": "BEIDOU-3S M1S (C57)",
        "meta_object_id": "2015-037B",
        "meta_epoch": "2025-12-23T23:15:38.644992",
        "meta_mean_motion": 1.86253915,
        "meta_eccentricity": 0.00036937,
        "meta_inclination": 55.0251,
        "meta_ra_of_asc_node": 308.0679,
        "meta_arg_of_pericenter": 2.4172,
        "meta_mean_anomaly": 357.5894,
        "meta_ephemeris_type": 0,
        "meta_classification_type": "U",
        "meta_norad_cat_id": 40749,
        "meta_element_set_no": 999,
        "meta_rev_at_epoch": 7086,
        "meta_bstar": 0,
        "meta_mean_motion_dot": -5.3e-07,
        "meta_mean_motion_ddot": 0,
        "tle_line1": "1 40749U 15037B   25357.96919728 -.00000053  00000+0  00000+0 0  9990",
        "tle_line2": "2 40749  55.0251 308.0679 0003693   2.4172 357.5894  1.86253915 70866"
      },
      "geometry": {
        "type": "Point",
        "coordinates": [
          95.81133840572589,
          37.31917574418472
        ]
      }
    }
  ]
}